GSAT0216 (GALILEO 20)   
1 43056U 17079B   26191.18336701  .00000090  00000+0  00000+0 0  9997
2 43056  55.0690 220.8736 0004821 276.9654  83.0589  1.70474478 53392
GSAT0217 (GALILEO 21)   
1 43057U 17079C   26188.47125062  .00000081  00000+0  00000+0 0  9992
2 43057  55.0679 220.9459 0003909 293.3909  66.6394  1.70474257 53335
GSAT0218 (GALILEO 22)   
1 43058U 17079D   26191.03766544  .00000090  00000+0  00000+0 0  9995
2 43058  55.0673 220.8729 0005324 274.1893  85.8286  1.70474412 53405
BEIDOU-3 M7             
1 43107U 18003A   26189.29199427 -.00000066  00000+0  00000+0 0  9997
2 43107  54.3078 301.5795 0004480  98.0554 262.0167  1.86228392 57749
BEIDOU-3 M8             
1 43108U 18003B   26189.77338495 -.00000067  00000+0  00000+0 0  9992
2 43108  54.3003 301.5443 0002969 259.3188 100.6682  1.86231270 57763
BEIDOU-3 M4             
1 43207U 18018A   26190.21653484 -.00000047  00000+0  00000+0 0  9995
2 43207  56.6695  62.4232 0007451  27.0814 333.0189  1.86231289 57158
BEIDOU-3 M3             
1 43208U 18018B   26187.59825105 -.00000041  00000+0  00000+0 0  9998
2 43208  56.6666  62.5134 0007880 344.5989  15.4415  1.86231254 57105
BEIDOU-3 M9             
1 43245U 18029A   26189.42706904 -.00000063  00000+0  00000+0 0  9994
2 43245  54.1736 299.2068 0001095 182.3611 177.6623  1.86228291 56292
BEIDOU-3 M10            
1 43246U 18029B   26189.36131538 -.00000063  00000+0  00000+0 0  9993
2 43246  54.1715 299.2350 0003338  36.6735 323.3733  1.86229516 56275
IRNSS-1I                
1 43286U 18035A   26187.83739038  .00000079  00000+0  00000+0 0  9999
2 43286  28.7973  73.8917 0018087 180.4002  27.0525  1.00279237 30279
COSMOS 2527 [GLONASS-M] 
1 43508U 18053A   26190.14000907 -.00000024  00000+0  00000+0 0  9991
2 43508  65.5893  73.1758 0006665 231.8684 128.1313  2.13102220 62745
BEIDOU-2 IGSO-7         
1 43539U 18057A   26182.89122331 -.00000033  00000+0  00000+0 0  9998
2 43539  55.1981 162.9292 0104946 237.8611 308.6338  1.00246939 29273
GSAT0221 (GALILEO 25)   
1 43564U 18060A   26190.94173446 -.00000079  00000+0  00000+0 0  9998
2 43564  57.1621 341.1668 0002608 288.2741  71.6944  1.70476012 49555
GSAT0222 (GALILEO 26)   
1 43565U 18060B   26189.98825864 -.00000075  00000+0  00000+0 0  9995
2 43565  57.1651 341.1962 0002626 236.6696 123.3045  1.70475769 49580
GSAT0219 (GALILEO 23)   
1 43566U 18060C   26190.20911964 -.00000076  00000+0  00000+0 0  9991
2 43566  57.1645 341.1918 0001791 303.0651  56.9164  1.70476041 49562
GSAT0220 (GALILEO 24)   
1 43567U 18060D   26191.01669920 -.00000079  00000+0  00000+0 0  9997
2 43567  57.1639 341.1705 0002110 293.5002  66.4744  1.70475701 49561
BEIDOU-3 M5             
1 43581U 18062A   26189.58528560  .00000121  00000+0  00000+0 0  9995
2 43581  54.0866 181.5769 0005712 292.3518  67.5967  1.86228617 54037
BEIDOU-3 M6             
1 43582U 18062B   26188.37493262  .00000119  00000+0  00000+0 0  9999
2 43582  54.0860 181.6071 0005088   9.1977 350.8186  1.86227975 54013
BEIDOU-3 M12            
1 43602U 18067A   26190.99815852  .00000111  00000+0  00000+0 0  9993
2 43602  54.1817 180.2667 0007905  30.5943 329.4569  1.86227772 53545
BEIDOU-3 M11            
1 43603U 18067B   26191.13328510  .00000110  00000+0  00000+0 0  9990
2 43603  54.1791 180.2259 0004618  13.9452 346.0721  1.86227244 53574
BEIDOU-3 M13            
1 43622U 18072A   26188.94016940 -.00000045  00000+0  00000+0 0  9991
2 43622  56.6422  61.9754 0006453 332.0824  27.9450  1.86231557 53043
BEIDOU-3 M14            
1 43623U 18072B   26189.34256841 -.00000046  00000+0  00000+0 0  9994
2 43623  56.6446  61.9559 0005520  10.5134 349.5598  1.86231219 53040
BEIDOU-3 M16            
1 43647U 18078A   26188.42370037 -.00000062  00000+0  00000+0 0  9996
2 43647  54.0702 299.2766 0006751  40.2464 319.8292  1.86232245 52536
BEIDOU-3 M15            
1 43648U 18078B   26187.47907947 -.00000060  00000+0  00000+0 0  9995
2 43648  54.0667 299.3099 0003770  58.5392 301.5247  1.86232415 52534
BEIDOU-3 G1             
1 43683U 18085A   26191.24216366 -.00000101  00000+0  00000+0 0  9996
2 43683   2.9232  96.7668 0008198 355.1748  83.3480  1.00272939 28295
COSMOS 2529 [GLONASS-M] 
1 43687U 18086A   26191.17482311  .00000122  00000+0  00000+0 0  9990
2 43687  64.2967 191.8180 0012112 256.3203 103.5775  2.13102033 59771
BEIDOU-3 M17            
1 43706U 18093A   26190.35885625  .00000118  00000+0  00000+0 0  9999
2 43706  54.1700 181.5443 0010162 293.4624  88.7509  1.86228235 51959
BEIDOU-3 M18            
1 43707U 18093B   26191.26314113  .00000110  00000+0  00000+0 0  9992
2 43707  54.1710 181.5060 0008033 322.2689  37.6812  1.86226366 51966
NAVSTAR 77 (USA 289)    
1 43873U 18109A   26191.18934832 -.00000035  00000+0  00000+0 0  9998
2 43873  55.6952  91.2795 0038527 197.3237 335.0463  2.00562552 55538
BEIDOU-3 IGSO-1         
1 44204U 19023A   26189.48210734 -.00000209  00000+0  00000+0 0  9994
2 44204  58.7247  37.4318 0025582 224.0549 317.4664  1.00285216  7422
BEIDOU-2 G8             
1 44231U 19027A   26191.31039167 -.00000238  00000+0  00000+0 0  9994
2 44231   1.7130  74.5112 0009822 283.4901 186.4833  1.00273453 26316
